<?xml version="1.0" encoding="UTF-8"?>
<kml xmlns="http://www.opengis.net/kml/2.2" xmlns:gx="http://www.google.com/kml/ext/2.2" xmlns:kml="http://www.opengis.net/kml/2.2" xmlns:atom="http://www.w3.org/2005/Atom">
<Document>
	<name>Breckinridge</name>
	<Schema name="Breckinridge" id="S_Breckinridge_SISDDSDD">
		<SimpleField type="string" name="tag"><displayName>&lt;b&gt;tag&lt;/b&gt;</displayName>
</SimpleField>
		<SimpleField type="int" name="turbine_id"><displayName>&lt;b&gt;turbine_id&lt;/b&gt;</displayName>
</SimpleField>
		<SimpleField type="string" name="project"><displayName>&lt;b&gt;project&lt;/b&gt;</displayName>
</SimpleField>
		<SimpleField type="double" name="hub_height__m_"><displayName>&lt;b&gt;hub height (m)&lt;/b&gt;</displayName>
</SimpleField>
		<SimpleField type="double" name="rotor_diameter__m_"><displayName>&lt;b&gt;rotor diameter (m)&lt;/b&gt;</displayName>
</SimpleField>
		<SimpleField type="string" name="turbine_model"><displayName>&lt;b&gt;turbine model&lt;/b&gt;</displayName>
</SimpleField>
		<SimpleField type="double" name="xlong"><displayName>&lt;b&gt;xlong&lt;/b&gt;</displayName>
</SimpleField>
		<SimpleField type="double" name="ylat"><displayName>&lt;b&gt;ylat&lt;/b&gt;</displayName>
</SimpleField>
	</Schema>
	<Style id="hlightPointStyle2">
		<IconStyle>
			<color>ff000000</color>
			<scale>0.8</scale>
			<Icon>
				<href>files/blackdot_1_0_0_0_1_0.png</href>
			</Icon>
			<hotSpot x="0.5" y="0.5" xunits="fraction" yunits="fraction"/>
		</IconStyle>
		<BalloonStyle>
			<text><![CDATA[<table border="0">
  <tr><td><b>tag</b></td><td>$[Blackwell/tag]</td></tr>
  <tr><td><b>turbine_id</b></td><td>$[Blackwell/turbine_id]</td></tr>
  <tr><td><b>project</b></td><td>$[Blackwell/project]</td></tr>
  <tr><td><b>hub height (m)</b></td><td>$[Blackwell/hub_height__m_]</td></tr>
  <tr><td><b>rotor diameter (m)</b></td><td>$[Blackwell/rotor_diameter__m_]</td></tr>
  <tr><td><b>turbine model</b></td><td>$[Blackwell/turbine_model]</td></tr>
  <tr><td><b>xlong</b></td><td>$[Blackwell/xlong]</td></tr>
  <tr><td><b>ylat</b></td><td>$[Blackwell/ylat]</td></tr>
</table>]]></text>
		</BalloonStyle>
	</Style>
	<Style id="normPointStyle2">
		<IconStyle>
			<color>ff000000</color>
			<scale>0.8</scale>
			<Icon>
				<href>files/blackdot_1_0_0_0_1_0.png</href>
			</Icon>
			<hotSpot x="0.5" y="0.5" xunits="fraction" yunits="fraction"/>
		</IconStyle>
		<BalloonStyle>
			<text><![CDATA[<table border="0">
  <tr><td><b>tag</b></td><td>$[Blackwell/tag]</td></tr>
  <tr><td><b>turbine_id</b></td><td>$[Blackwell/turbine_id]</td></tr>
  <tr><td><b>project</b></td><td>$[Blackwell/project]</td></tr>
  <tr><td><b>hub height (m)</b></td><td>$[Blackwell/hub_height__m_]</td></tr>
  <tr><td><b>rotor diameter (m)</b></td><td>$[Blackwell/rotor_diameter__m_]</td></tr>
  <tr><td><b>turbine model</b></td><td>$[Blackwell/turbine_model]</td></tr>
  <tr><td><b>xlong</b></td><td>$[Blackwell/xlong]</td></tr>
  <tr><td><b>ylat</b></td><td>$[Blackwell/ylat]</td></tr>
</table>]]></text>
		</BalloonStyle>
	</Style>
	<StyleMap id="pointStyleMap2">
		<Pair>
			<key>normal</key>
			<styleUrl>#normPointStyle2</styleUrl>
		</Pair>
		<Pair>
			<key>highlight</key>
			<styleUrl>#hlightPointStyle2</styleUrl>
		</Pair>
	</StyleMap>
	<Folder id="layer 0">
		<name>Breckinridge</name>
		<Placemark>
			<name>Breckinridge</name>
			<styleUrl>#pointStyleMap2</styleUrl>
			<ExtendedData>
				<SchemaData schemaUrl="#S_Breckinridge_SISDDSDD">
					<SimpleData name="tag">Breckinridge</SimpleData>
					<SimpleData name="turbine_id">3052255</SimpleData>
					<SimpleData name="project">Breckinridge</SimpleData>
					<SimpleData name="hub_height__m_">80</SimpleData>
					<SimpleData name="rotor_diameter__m_">103</SimpleData>
					<SimpleData name="turbine_model">GE1.7-103</SimpleData>
					<SimpleData name="xlong">-97.6647</SimpleData>
					<SimpleData name="ylat">36.4427</SimpleData>
				</SchemaData>
			</ExtendedData>
			<Point>
				<coordinates>-97.66474899999999,36.44274500000002,0</coordinates>
			</Point>
		</Placemark>
		<Placemark>
			<styleUrl>#pointStyleMap2</styleUrl>
			<ExtendedData>
				<SchemaData schemaUrl="#S_Breckinridge_SISDDSDD">
					<SimpleData name="tag"></SimpleData>
					<SimpleData name="turbine_id">3052239</SimpleData>
					<SimpleData name="project">Breckinridge</SimpleData>
					<SimpleData name="hub_height__m_">80</SimpleData>
					<SimpleData name="rotor_diameter__m_">103</SimpleData>
					<SimpleData name="turbine_model">GE1.7-103</SimpleData>
					<SimpleData name="xlong">-97.6544</SimpleData>
					<SimpleData name="ylat">36.4568</SimpleData>
				</SchemaData>
			</ExtendedData>
			<Point>
				<coordinates>-97.654411,36.45682500000002,0</coordinates>
			</Point>
		</Placemark>
		<Placemark>
			<styleUrl>#pointStyleMap2</styleUrl>
			<ExtendedData>
				<SchemaData schemaUrl="#S_Breckinridge_SISDDSDD">
					<SimpleData name="tag"></SimpleData>
					<SimpleData name="turbine_id">3052244</SimpleData>
					<SimpleData name="project">Breckinridge</SimpleData>
					<SimpleData name="hub_height__m_">80</SimpleData>
					<SimpleData name="rotor_diameter__m_">103</SimpleData>
					<SimpleData name="turbine_model">GE1.7-103</SimpleData>
					<SimpleData name="xlong">-97.7345</SimpleData>
					<SimpleData name="ylat">36.4452</SimpleData>
				</SchemaData>
			</ExtendedData>
			<Point>
				<coordinates>-97.73452,36.44522499999998,0</coordinates>
			</Point>
		</Placemark>
		<Placemark>
			<styleUrl>#pointStyleMap2</styleUrl>
			<ExtendedData>
				<SchemaData schemaUrl="#S_Breckinridge_SISDDSDD">
					<SimpleData name="tag"></SimpleData>
					<SimpleData name="turbine_id">3054434</SimpleData>
					<SimpleData name="project">Breckinridge</SimpleData>
					<SimpleData name="hub_height__m_">80</SimpleData>
					<SimpleData name="rotor_diameter__m_">103</SimpleData>
					<SimpleData name="turbine_model">GE1.7-103</SimpleData>
					<SimpleData name="xlong">-97.6733</SimpleData>
					<SimpleData name="ylat">36.4532</SimpleData>
				</SchemaData>
			</ExtendedData>
			<Point>
				<coordinates>-97.673264,36.453156,0</coordinates>
			</Point>
		</Placemark>
		<Placemark>
			<styleUrl>#pointStyleMap2</styleUrl>
			<ExtendedData>
				<SchemaData schemaUrl="#S_Breckinridge_SISDDSDD">
					<SimpleData name="tag"></SimpleData>
					<SimpleData name="turbine_id">3054438</SimpleData>
					<SimpleData name="project">Breckinridge</SimpleData>
					<SimpleData name="hub_height__m_">80</SimpleData>
					<SimpleData name="rotor_diameter__m_">103</SimpleData>
					<SimpleData name="turbine_model">GE1.7-103</SimpleData>
					<SimpleData name="xlong">-97.6468</SimpleData>
					<SimpleData name="ylat">36.4439</SimpleData>
				</SchemaData>
			</ExtendedData>
			<Point>
				<coordinates>-97.64680499999999,36.443935,0</coordinates>
			</Point>
		</Placemark>
		<Placemark>
			<styleUrl>#pointStyleMap2</styleUrl>
			<ExtendedData>
				<SchemaData schemaUrl="#S_Breckinridge_SISDDSDD">
					<SimpleData name="tag"></SimpleData>
					<SimpleData name="turbine_id">3054436</SimpleData>
					<SimpleData name="project">Breckinridge</SimpleData>
					<SimpleData name="hub_height__m_">80</SimpleData>
					<SimpleData name="rotor_diameter__m_">103</SimpleData>
					<SimpleData name="turbine_model">GE1.7-103</SimpleData>
					<SimpleData name="xlong">-97.6691</SimpleData>
					<SimpleData name="ylat">36.452</SimpleData>
				</SchemaData>
			</ExtendedData>
			<Point>
				<coordinates>-97.669121,36.45202299999998,0</coordinates>
			</Point>
		</Placemark>
		<Placemark>
			<styleUrl>#pointStyleMap2</styleUrl>
			<ExtendedData>
				<SchemaData schemaUrl="#S_Breckinridge_SISDDSDD">
					<SimpleData name="tag"></SimpleData>
					<SimpleData name="turbine_id">3052264</SimpleData>
					<SimpleData name="project">Breckinridge</SimpleData>
					<SimpleData name="hub_height__m_">80</SimpleData>
					<SimpleData name="rotor_diameter__m_">103</SimpleData>
					<SimpleData name="turbine_model">GE1.7-103</SimpleData>
					<SimpleData name="xlong">-97.607</SimpleData>
					<SimpleData name="ylat">36.4419</SimpleData>
				</SchemaData>
			</ExtendedData>
			<Point>
				<coordinates>-97.606979,36.441895,0</coordinates>
			</Point>
		</Placemark>
		<Placemark>
			<styleUrl>#pointStyleMap2</styleUrl>
			<ExtendedData>
				<SchemaData schemaUrl="#S_Breckinridge_SISDDSDD">
					<SimpleData name="tag"></SimpleData>
					<SimpleData name="turbine_id">3052237</SimpleData>
					<SimpleData name="project">Breckinridge</SimpleData>
					<SimpleData name="hub_height__m_">80</SimpleData>
					<SimpleData name="rotor_diameter__m_">103</SimpleData>
					<SimpleData name="turbine_model">GE1.7-103</SimpleData>
					<SimpleData name="xlong">-97.6958</SimpleData>
					<SimpleData name="ylat">36.4571</SimpleData>
				</SchemaData>
			</ExtendedData>
			<Point>
				<coordinates>-97.69577,36.45705399999998,0</coordinates>
			</Point>
		</Placemark>
		<Placemark>
			<styleUrl>#pointStyleMap2</styleUrl>
			<ExtendedData>
				<SchemaData schemaUrl="#S_Breckinridge_SISDDSDD">
					<SimpleData name="tag"></SimpleData>
					<SimpleData name="turbine_id">3054433</SimpleData>
					<SimpleData name="project">Breckinridge</SimpleData>
					<SimpleData name="hub_height__m_">80</SimpleData>
					<SimpleData name="rotor_diameter__m_">103</SimpleData>
					<SimpleData name="turbine_model">GE1.7-103</SimpleData>
					<SimpleData name="xlong">-97.6779</SimpleData>
					<SimpleData name="ylat">36.4527</SimpleData>
				</SchemaData>
			</ExtendedData>
			<Point>
				<coordinates>-97.67791000000001,36.452744,0</coordinates>
			</Point>
		</Placemark>
		<Placemark>
			<styleUrl>#pointStyleMap2</styleUrl>
			<ExtendedData>
				<SchemaData schemaUrl="#S_Breckinridge_SISDDSDD">
					<SimpleData name="tag"></SimpleData>
					<SimpleData name="turbine_id">3052232</SimpleData>
					<SimpleData name="project">Breckinridge</SimpleData>
					<SimpleData name="hub_height__m_">80</SimpleData>
					<SimpleData name="rotor_diameter__m_">103</SimpleData>
					<SimpleData name="turbine_model">GE1.7-103</SimpleData>
					<SimpleData name="xlong">-97.7264</SimpleData>
					<SimpleData name="ylat">36.4575</SimpleData>
				</SchemaData>
			</ExtendedData>
			<Point>
				<coordinates>-97.72642500000001,36.45748499999999,0</coordinates>
			</Point>
		</Placemark>
		<Placemark>
			<styleUrl>#pointStyleMap2</styleUrl>
			<ExtendedData>
				<SchemaData schemaUrl="#S_Breckinridge_SISDDSDD">
					<SimpleData name="tag"></SimpleData>
					<SimpleData name="turbine_id">3052231</SimpleData>
					<SimpleData name="project">Breckinridge</SimpleData>
					<SimpleData name="hub_height__m_">80</SimpleData>
					<SimpleData name="rotor_diameter__m_">103</SimpleData>
					<SimpleData name="turbine_model">GE1.7-103</SimpleData>
					<SimpleData name="xlong">-97.7317</SimpleData>
					<SimpleData name="ylat">36.4593</SimpleData>
				</SchemaData>
			</ExtendedData>
			<Point>
				<coordinates>-97.731674,36.459343,0</coordinates>
			</Point>
		</Placemark>
		<Placemark>
			<styleUrl>#pointStyleMap2</styleUrl>
			<ExtendedData>
				<SchemaData schemaUrl="#S_Breckinridge_SISDDSDD">
					<SimpleData name="tag"></SimpleData>
					<SimpleData name="turbine_id">3054441</SimpleData>
					<SimpleData name="project">Breckinridge</SimpleData>
					<SimpleData name="hub_height__m_">80</SimpleData>
					<SimpleData name="rotor_diameter__m_">103</SimpleData>
					<SimpleData name="turbine_model">GE1.7-103</SimpleData>
					<SimpleData name="xlong">-97.6273</SimpleData>
					<SimpleData name="ylat">36.4496</SimpleData>
				</SchemaData>
			</ExtendedData>
			<Point>
				<coordinates>-97.627342,36.44956200000004,0</coordinates>
			</Point>
		</Placemark>
		<Placemark>
			<styleUrl>#pointStyleMap2</styleUrl>
			<ExtendedData>
				<SchemaData schemaUrl="#S_Breckinridge_SISDDSDD">
					<SimpleData name="tag"></SimpleData>
					<SimpleData name="turbine_id">3052252</SimpleData>
					<SimpleData name="project">Breckinridge</SimpleData>
					<SimpleData name="hub_height__m_">80</SimpleData>
					<SimpleData name="rotor_diameter__m_">103</SimpleData>
					<SimpleData name="turbine_model">GE1.7-103</SimpleData>
					<SimpleData name="xlong">-97.6863</SimpleData>
					<SimpleData name="ylat">36.4355</SimpleData>
				</SchemaData>
			</ExtendedData>
			<Point>
				<coordinates>-97.686302,36.43552399999999,0</coordinates>
			</Point>
		</Placemark>
		<Placemark>
			<styleUrl>#pointStyleMap2</styleUrl>
			<ExtendedData>
				<SchemaData schemaUrl="#S_Breckinridge_SISDDSDD">
					<SimpleData name="tag"></SimpleData>
					<SimpleData name="turbine_id">3052243</SimpleData>
					<SimpleData name="project">Breckinridge</SimpleData>
					<SimpleData name="hub_height__m_">80</SimpleData>
					<SimpleData name="rotor_diameter__m_">103</SimpleData>
					<SimpleData name="turbine_model">GE1.7-103</SimpleData>
					<SimpleData name="xlong">-97.7392</SimpleData>
					<SimpleData name="ylat">36.4428</SimpleData>
				</SchemaData>
			</ExtendedData>
			<Point>
				<coordinates>-97.73923499999999,36.442753,0</coordinates>
			</Point>
		</Placemark>
		<Placemark>
			<styleUrl>#pointStyleMap2</styleUrl>
			<ExtendedData>
				<SchemaData schemaUrl="#S_Breckinridge_SISDDSDD">
					<SimpleData name="tag"></SimpleData>
					<SimpleData name="turbine_id">3054443</SimpleData>
					<SimpleData name="project">Breckinridge</SimpleData>
					<SimpleData name="hub_height__m_">80</SimpleData>
					<SimpleData name="rotor_diameter__m_">103</SimpleData>
					<SimpleData name="turbine_model">GE1.7-103</SimpleData>
					<SimpleData name="xlong">-97.6901</SimpleData>
					<SimpleData name="ylat">36.4375</SimpleData>
				</SchemaData>
			</ExtendedData>
			<Point>
				<coordinates>-97.69010199999998,36.43754200000002,0</coordinates>
			</Point>
		</Placemark>
		<Placemark>
			<styleUrl>#pointStyleMap2</styleUrl>
			<ExtendedData>
				<SchemaData schemaUrl="#S_Breckinridge_SISDDSDD">
					<SimpleData name="tag"></SimpleData>
					<SimpleData name="turbine_id">3054428</SimpleData>
					<SimpleData name="project">Breckinridge</SimpleData>
					<SimpleData name="hub_height__m_">80</SimpleData>
					<SimpleData name="rotor_diameter__m_">103</SimpleData>
					<SimpleData name="turbine_model">GE1.7-103</SimpleData>
					<SimpleData name="xlong">-97.749</SimpleData>
					<SimpleData name="ylat">36.4595</SimpleData>
				</SchemaData>
			</ExtendedData>
			<Point>
				<coordinates>-97.74899299999998,36.45954500000001,0</coordinates>
			</Point>
		</Placemark>
		<Placemark>
			<styleUrl>#pointStyleMap2</styleUrl>
			<ExtendedData>
				<SchemaData schemaUrl="#S_Breckinridge_SISDDSDD">
					<SimpleData name="tag"></SimpleData>
					<SimpleData name="turbine_id">3052267</SimpleData>
					<SimpleData name="project">Breckinridge</SimpleData>
					<SimpleData name="hub_height__m_">80</SimpleData>
					<SimpleData name="rotor_diameter__m_">103</SimpleData>
					<SimpleData name="turbine_model">GE1.7-103</SimpleData>
					<SimpleData name="xlong">-97.6241</SimpleData>
					<SimpleData name="ylat">36.4516</SimpleData>
				</SchemaData>
			</ExtendedData>
			<Point>
				<coordinates>-97.624077,36.45162199999997,0</coordinates>
			</Point>
		</Placemark>
		<Placemark>
			<styleUrl>#pointStyleMap2</styleUrl>
			<ExtendedData>
				<SchemaData schemaUrl="#S_Breckinridge_SISDDSDD">
					<SimpleData name="tag"></SimpleData>
					<SimpleData name="turbine_id">3054439</SimpleData>
					<SimpleData name="project">Breckinridge</SimpleData>
					<SimpleData name="hub_height__m_">80</SimpleData>
					<SimpleData name="rotor_diameter__m_">103</SimpleData>
					<SimpleData name="turbine_model">GE1.7-103</SimpleData>
					<SimpleData name="xlong">-97.6433</SimpleData>
					<SimpleData name="ylat">36.4433</SimpleData>
				</SchemaData>
			</ExtendedData>
			<Point>
				<coordinates>-97.643272,36.44327499999999,0</coordinates>
			</Point>
		</Placemark>
		<Placemark>
			<styleUrl>#pointStyleMap2</styleUrl>
			<ExtendedData>
				<SchemaData schemaUrl="#S_Breckinridge_SISDDSDD">
					<SimpleData name="tag"></SimpleData>
					<SimpleData name="turbine_id">3054449</SimpleData>
					<SimpleData name="project">Breckinridge</SimpleData>
					<SimpleData name="hub_height__m_">80</SimpleData>
					<SimpleData name="rotor_diameter__m_">103</SimpleData>
					<SimpleData name="turbine_model">GE1.7-103</SimpleData>
					<SimpleData name="xlong">-97.6295</SimpleData>
					<SimpleData name="ylat">36.4562</SimpleData>
				</SchemaData>
			</ExtendedData>
			<Point>
				<coordinates>-97.62949400000001,36.45623399999999,0</coordinates>
			</Point>
		</Placemark>
		<Placemark>
			<styleUrl>#pointStyleMap2</styleUrl>
			<ExtendedData>
				<SchemaData schemaUrl="#S_Breckinridge_SISDDSDD">
					<SimpleData name="tag"></SimpleData>
					<SimpleData name="turbine_id">3052240</SimpleData>
					<SimpleData name="project">Breckinridge</SimpleData>
					<SimpleData name="hub_height__m_">80</SimpleData>
					<SimpleData name="rotor_diameter__m_">103</SimpleData>
					<SimpleData name="turbine_model">GE1.7-103</SimpleData>
					<SimpleData name="xlong">-97.6493</SimpleData>
					<SimpleData name="ylat">36.456</SimpleData>
				</SchemaData>
			</ExtendedData>
			<Point>
				<coordinates>-97.649254,36.45598200000001,0</coordinates>
			</Point>
		</Placemark>
		<Placemark>
			<styleUrl>#pointStyleMap2</styleUrl>
			<ExtendedData>
				<SchemaData schemaUrl="#S_Breckinridge_SISDDSDD">
					<SimpleData name="tag"></SimpleData>
					<SimpleData name="turbine_id">3054453</SimpleData>
					<SimpleData name="project">Breckinridge</SimpleData>
					<SimpleData name="hub_height__m_">80</SimpleData>
					<SimpleData name="rotor_diameter__m_">103</SimpleData>
					<SimpleData name="turbine_model">GE1.7-103</SimpleData>
					<SimpleData name="xlong">-97.6975</SimpleData>
					<SimpleData name="ylat">36.4378</SimpleData>
				</SchemaData>
			</ExtendedData>
			<Point>
				<coordinates>-97.69753300000001,36.43775200000001,0</coordinates>
			</Point>
		</Placemark>
		<Placemark>
			<styleUrl>#pointStyleMap2</styleUrl>
			<ExtendedData>
				<SchemaData schemaUrl="#S_Breckinridge_SISDDSDD">
					<SimpleData name="tag"></SimpleData>
					<SimpleData name="turbine_id">3052238</SimpleData>
					<SimpleData name="project">Breckinridge</SimpleData>
					<SimpleData name="hub_height__m_">80</SimpleData>
					<SimpleData name="rotor_diameter__m_">103</SimpleData>
					<SimpleData name="turbine_model">GE1.7-103</SimpleData>
					<SimpleData name="xlong">-97.6651</SimpleData>
					<SimpleData name="ylat">36.454</SimpleData>
				</SchemaData>
			</ExtendedData>
			<Point>
				<coordinates>-97.665131,36.45396399999998,0</coordinates>
			</Point>
		</Placemark>
		<Placemark>
			<styleUrl>#pointStyleMap2</styleUrl>
			<ExtendedData>
				<SchemaData schemaUrl="#S_Breckinridge_SISDDSDD">
					<SimpleData name="tag"></SimpleData>
					<SimpleData name="turbine_id">3052259</SimpleData>
					<SimpleData name="project">Breckinridge</SimpleData>
					<SimpleData name="hub_height__m_">80</SimpleData>
					<SimpleData name="rotor_diameter__m_">103</SimpleData>
					<SimpleData name="turbine_model">GE1.7-103</SimpleData>
					<SimpleData name="xlong">-97.6449</SimpleData>
					<SimpleData name="ylat">36.4364</SimpleData>
				</SchemaData>
			</ExtendedData>
			<Point>
				<coordinates>-97.644882,36.436382,0</coordinates>
			</Point>
		</Placemark>
		<Placemark>
			<styleUrl>#pointStyleMap2</styleUrl>
			<ExtendedData>
				<SchemaData schemaUrl="#S_Breckinridge_SISDDSDD">
					<SimpleData name="tag"></SimpleData>
					<SimpleData name="turbine_id">3054454</SimpleData>
					<SimpleData name="project">Breckinridge</SimpleData>
					<SimpleData name="hub_height__m_">80</SimpleData>
					<SimpleData name="rotor_diameter__m_">103</SimpleData>
					<SimpleData name="turbine_model">GE1.7-103</SimpleData>
					<SimpleData name="xlong">-97.6268</SimpleData>
					<SimpleData name="ylat">36.4311</SimpleData>
				</SchemaData>
			</ExtendedData>
			<Point>
				<coordinates>-97.62683899999999,36.43111400000002,0</coordinates>
			</Point>
		</Placemark>
		<Placemark>
			<styleUrl>#pointStyleMap2</styleUrl>
			<ExtendedData>
				<SchemaData schemaUrl="#S_Breckinridge_SISDDSDD">
					<SimpleData name="tag"></SimpleData>
					<SimpleData name="turbine_id">3054430</SimpleData>
					<SimpleData name="project">Breckinridge</SimpleData>
					<SimpleData name="hub_height__m_">80</SimpleData>
					<SimpleData name="rotor_diameter__m_">103</SimpleData>
					<SimpleData name="turbine_model">GE1.7-103</SimpleData>
					<SimpleData name="xlong">-97.7404</SimpleData>
					<SimpleData name="ylat">36.4598</SimpleData>
				</SchemaData>
			</ExtendedData>
			<Point>
				<coordinates>-97.740379,36.45980500000002,0</coordinates>
			</Point>
		</Placemark>
		<Placemark>
			<styleUrl>#pointStyleMap2</styleUrl>
			<ExtendedData>
				<SchemaData schemaUrl="#S_Breckinridge_SISDDSDD">
					<SimpleData name="tag"></SimpleData>
					<SimpleData name="turbine_id">3054442</SimpleData>
					<SimpleData name="project">Breckinridge</SimpleData>
					<SimpleData name="hub_height__m_">80</SimpleData>
					<SimpleData name="rotor_diameter__m_">103</SimpleData>
					<SimpleData name="turbine_model">GE1.7-103</SimpleData>
					<SimpleData name="xlong">-97.6147</SimpleData>
					<SimpleData name="ylat">36.4466</SimpleData>
				</SchemaData>
			</ExtendedData>
			<Point>
				<coordinates>-97.61473100000001,36.446613,0</coordinates>
			</Point>
		</Placemark>
		<Placemark>
			<styleUrl>#pointStyleMap2</styleUrl>
			<ExtendedData>
				<SchemaData schemaUrl="#S_Breckinridge_SISDDSDD">
					<SimpleData name="tag"></SimpleData>
					<SimpleData name="turbine_id">3054435</SimpleData>
					<SimpleData name="project">Breckinridge</SimpleData>
					<SimpleData name="hub_height__m_">80</SimpleData>
					<SimpleData name="rotor_diameter__m_">103</SimpleData>
					<SimpleData name="turbine_model">GE1.7-103</SimpleData>
					<SimpleData name="xlong">-97.6701</SimpleData>
					<SimpleData name="ylat">36.4584</SimpleData>
				</SchemaData>
			</ExtendedData>
			<Point>
				<coordinates>-97.67010500000001,36.45838499999999,0</coordinates>
			</Point>
		</Placemark>
		<Placemark>
			<styleUrl>#pointStyleMap2</styleUrl>
			<ExtendedData>
				<SchemaData schemaUrl="#S_Breckinridge_SISDDSDD">
					<SimpleData name="tag"></SimpleData>
					<SimpleData name="turbine_id">3054429</SimpleData>
					<SimpleData name="project">Breckinridge</SimpleData>
					<SimpleData name="hub_height__m_">80</SimpleData>
					<SimpleData name="rotor_diameter__m_">103</SimpleData>
					<SimpleData name="turbine_model">GE1.7-103</SimpleData>
					<SimpleData name="xlong">-97.7448</SimpleData>
					<SimpleData name="ylat">36.4598</SimpleData>
				</SchemaData>
			</ExtendedData>
			<Point>
				<coordinates>-97.74483499999999,36.459785,0</coordinates>
			</Point>
		</Placemark>
		<Placemark>
			<styleUrl>#pointStyleMap2</styleUrl>
			<ExtendedData>
				<SchemaData schemaUrl="#S_Breckinridge_SISDDSDD">
					<SimpleData name="tag"></SimpleData>
					<SimpleData name="turbine_id">3052251</SimpleData>
					<SimpleData name="project">Breckinridge</SimpleData>
					<SimpleData name="hub_height__m_">80</SimpleData>
					<SimpleData name="rotor_diameter__m_">103</SimpleData>
					<SimpleData name="turbine_model">GE1.7-103</SimpleData>
					<SimpleData name="xlong">-97.6886</SimpleData>
					<SimpleData name="ylat">36.4471</SimpleData>
				</SchemaData>
			</ExtendedData>
			<Point>
				<coordinates>-97.688644,36.44705199999999,0</coordinates>
			</Point>
		</Placemark>
		<Placemark>
			<styleUrl>#pointStyleMap2</styleUrl>
			<ExtendedData>
				<SchemaData schemaUrl="#S_Breckinridge_SISDDSDD">
					<SimpleData name="tag"></SimpleData>
					<SimpleData name="turbine_id">3052261</SimpleData>
					<SimpleData name="project">Breckinridge</SimpleData>
					<SimpleData name="hub_height__m_">80</SimpleData>
					<SimpleData name="rotor_diameter__m_">103</SimpleData>
					<SimpleData name="turbine_model">GE1.7-103</SimpleData>
					<SimpleData name="xlong">-97.6248</SimpleData>
					<SimpleData name="ylat">36.4372</SimpleData>
				</SchemaData>
			</ExtendedData>
			<Point>
				<coordinates>-97.62479399999999,36.43723299999999,0</coordinates>
			</Point>
		</Placemark>
		<Placemark>
			<styleUrl>#pointStyleMap2</styleUrl>
			<ExtendedData>
				<SchemaData schemaUrl="#S_Breckinridge_SISDDSDD">
					<SimpleData name="tag"></SimpleData>
					<SimpleData name="turbine_id">3052241</SimpleData>
					<SimpleData name="project">Breckinridge</SimpleData>
					<SimpleData name="hub_height__m_">80</SimpleData>
					<SimpleData name="rotor_diameter__m_">103</SimpleData>
					<SimpleData name="turbine_model">GE1.7-103</SimpleData>
					<SimpleData name="xlong">-97.6384</SimpleData>
					<SimpleData name="ylat">36.454</SimpleData>
				</SchemaData>
			</ExtendedData>
			<Point>
				<coordinates>-97.63840500000002,36.45401,0</coordinates>
			</Point>
		</Placemark>
		<Placemark>
			<styleUrl>#pointStyleMap2</styleUrl>
			<ExtendedData>
				<SchemaData schemaUrl="#S_Breckinridge_SISDDSDD">
					<SimpleData name="tag"></SimpleData>
					<SimpleData name="turbine_id">3052265</SimpleData>
					<SimpleData name="project">Breckinridge</SimpleData>
					<SimpleData name="hub_height__m_">80</SimpleData>
					<SimpleData name="rotor_diameter__m_">103</SimpleData>
					<SimpleData name="turbine_model">GE1.7-103</SimpleData>
					<SimpleData name="xlong">-97.6116</SimpleData>
					<SimpleData name="ylat">36.442</SimpleData>
				</SchemaData>
			</ExtendedData>
			<Point>
				<coordinates>-97.61156500000001,36.44196299999999,0</coordinates>
			</Point>
		</Placemark>
		<Placemark>
			<styleUrl>#pointStyleMap2</styleUrl>
			<ExtendedData>
				<SchemaData schemaUrl="#S_Breckinridge_SISDDSDD">
					<SimpleData name="tag"></SimpleData>
					<SimpleData name="turbine_id">3052247</SimpleData>
					<SimpleData name="project">Breckinridge</SimpleData>
					<SimpleData name="hub_height__m_">80</SimpleData>
					<SimpleData name="rotor_diameter__m_">103</SimpleData>
					<SimpleData name="turbine_model">GE1.7-103</SimpleData>
					<SimpleData name="xlong">-97.7146</SimpleData>
					<SimpleData name="ylat">36.4389</SimpleData>
				</SchemaData>
			</ExtendedData>
			<Point>
				<coordinates>-97.7146,36.43894199999999,0</coordinates>
			</Point>
		</Placemark>
		<Placemark>
			<styleUrl>#pointStyleMap2</styleUrl>
			<ExtendedData>
				<SchemaData schemaUrl="#S_Breckinridge_SISDDSDD">
					<SimpleData name="tag"></SimpleData>
					<SimpleData name="turbine_id">3052245</SimpleData>
					<SimpleData name="project">Breckinridge</SimpleData>
					<SimpleData name="hub_height__m_">80</SimpleData>
					<SimpleData name="rotor_diameter__m_">103</SimpleData>
					<SimpleData name="turbine_model">GE1.7-103</SimpleData>
					<SimpleData name="xlong">-97.7252</SimpleData>
					<SimpleData name="ylat">36.445</SimpleData>
				</SchemaData>
			</ExtendedData>
			<Point>
				<coordinates>-97.725212,36.44503400000001,0</coordinates>
			</Point>
		</Placemark>
		<Placemark>
			<styleUrl>#pointStyleMap2</styleUrl>
			<ExtendedData>
				<SchemaData schemaUrl="#S_Breckinridge_SISDDSDD">
					<SimpleData name="tag"></SimpleData>
					<SimpleData name="turbine_id">3052262</SimpleData>
					<SimpleData name="project">Breckinridge</SimpleData>
					<SimpleData name="hub_height__m_">80</SimpleData>
					<SimpleData name="rotor_diameter__m_">103</SimpleData>
					<SimpleData name="turbine_model">GE1.7-103</SimpleData>
					<SimpleData name="xlong">-97.6202</SimpleData>
					<SimpleData name="ylat">36.437</SimpleData>
				</SchemaData>
			</ExtendedData>
			<Point>
				<coordinates>-97.620209,36.43701599999999,0</coordinates>
			</Point>
		</Placemark>
		<Placemark>
			<styleUrl>#pointStyleMap2</styleUrl>
			<ExtendedData>
				<SchemaData schemaUrl="#S_Breckinridge_SISDDSDD">
					<SimpleData name="tag"></SimpleData>
					<SimpleData name="turbine_id">3052230</SimpleData>
					<SimpleData name="project">Breckinridge</SimpleData>
					<SimpleData name="hub_height__m_">80</SimpleData>
					<SimpleData name="rotor_diameter__m_">103</SimpleData>
					<SimpleData name="turbine_model">GE1.7-103</SimpleData>
					<SimpleData name="xlong">-97.7359</SimpleData>
					<SimpleData name="ylat">36.4592</SimpleData>
				</SchemaData>
			</ExtendedData>
			<Point>
				<coordinates>-97.73593899999999,36.45923199999997,0</coordinates>
			</Point>
		</Placemark>
		<Placemark>
			<styleUrl>#pointStyleMap2</styleUrl>
			<ExtendedData>
				<SchemaData schemaUrl="#S_Breckinridge_SISDDSDD">
					<SimpleData name="tag"></SimpleData>
					<SimpleData name="turbine_id">3052250</SimpleData>
					<SimpleData name="project">Breckinridge</SimpleData>
					<SimpleData name="hub_height__m_">80</SimpleData>
					<SimpleData name="rotor_diameter__m_">103</SimpleData>
					<SimpleData name="turbine_model">GE1.7-103</SimpleData>
					<SimpleData name="xlong">-97.6916</SimpleData>
					<SimpleData name="ylat">36.4452</SimpleData>
				</SchemaData>
			</ExtendedData>
			<Point>
				<coordinates>-97.69160500000001,36.445244,0</coordinates>
			</Point>
		</Placemark>
		<Placemark>
			<styleUrl>#pointStyleMap2</styleUrl>
			<ExtendedData>
				<SchemaData schemaUrl="#S_Breckinridge_SISDDSDD">
					<SimpleData name="tag"></SimpleData>
					<SimpleData name="turbine_id">3052249</SimpleData>
					<SimpleData name="project">Breckinridge</SimpleData>
					<SimpleData name="hub_height__m_">80</SimpleData>
					<SimpleData name="rotor_diameter__m_">103</SimpleData>
					<SimpleData name="turbine_model">GE1.7-103</SimpleData>
					<SimpleData name="xlong">-97.6954</SimpleData>
					<SimpleData name="ylat">36.4433</SimpleData>
				</SchemaData>
			</ExtendedData>
			<Point>
				<coordinates>-97.695351,36.44332500000001,0</coordinates>
			</Point>
		</Placemark>
		<Placemark>
			<styleUrl>#pointStyleMap2</styleUrl>
			<ExtendedData>
				<SchemaData schemaUrl="#S_Breckinridge_SISDDSDD">
					<SimpleData name="tag"></SimpleData>
					<SimpleData name="turbine_id">3052246</SimpleData>
					<SimpleData name="project">Breckinridge</SimpleData>
					<SimpleData name="hub_height__m_">80</SimpleData>
					<SimpleData name="rotor_diameter__m_">103</SimpleData>
					<SimpleData name="turbine_model">GE1.7-103</SimpleData>
					<SimpleData name="xlong">-97.7186</SimpleData>
					<SimpleData name="ylat">36.4386</SimpleData>
				</SchemaData>
			</ExtendedData>
			<Point>
				<coordinates>-97.718636,36.43858299999998,0</coordinates>
			</Point>
		</Placemark>
		<Placemark>
			<styleUrl>#pointStyleMap2</styleUrl>
			<ExtendedData>
				<SchemaData schemaUrl="#S_Breckinridge_SISDDSDD">
					<SimpleData name="tag"></SimpleData>
					<SimpleData name="turbine_id">3052235</SimpleData>
					<SimpleData name="project">Breckinridge</SimpleData>
					<SimpleData name="hub_height__m_">80</SimpleData>
					<SimpleData name="rotor_diameter__m_">103</SimpleData>
					<SimpleData name="turbine_model">GE1.7-103</SimpleData>
					<SimpleData name="xlong">-97.7031</SimpleData>
					<SimpleData name="ylat">36.4592</SimpleData>
				</SchemaData>
			</ExtendedData>
			<Point>
				<coordinates>-97.70310199999999,36.45917500000002,0</coordinates>
			</Point>
		</Placemark>
		<Placemark>
			<styleUrl>#pointStyleMap2</styleUrl>
			<ExtendedData>
				<SchemaData schemaUrl="#S_Breckinridge_SISDDSDD">
					<SimpleData name="tag"></SimpleData>
					<SimpleData name="turbine_id">3052254</SimpleData>
					<SimpleData name="project">Breckinridge</SimpleData>
					<SimpleData name="hub_height__m_">80</SimpleData>
					<SimpleData name="rotor_diameter__m_">103</SimpleData>
					<SimpleData name="turbine_model">GE1.7-103</SimpleData>
					<SimpleData name="xlong">-97.6691</SimpleData>
					<SimpleData name="ylat">36.4419</SimpleData>
				</SchemaData>
			</ExtendedData>
			<Point>
				<coordinates>-97.66907500000001,36.441883,0</coordinates>
			</Point>
		</Placemark>
		<Placemark>
			<styleUrl>#pointStyleMap2</styleUrl>
			<ExtendedData>
				<SchemaData schemaUrl="#S_Breckinridge_SISDDSDD">
					<SimpleData name="tag"></SimpleData>
					<SimpleData name="turbine_id">3052248</SimpleData>
					<SimpleData name="project">Breckinridge</SimpleData>
					<SimpleData name="hub_height__m_">80</SimpleData>
					<SimpleData name="rotor_diameter__m_">103</SimpleData>
					<SimpleData name="turbine_model">GE1.7-103</SimpleData>
					<SimpleData name="xlong">-97.6994</SimpleData>
					<SimpleData name="ylat">36.4433</SimpleData>
				</SchemaData>
			</ExtendedData>
			<Point>
				<coordinates>-97.69937899999998,36.44332500000001,0</coordinates>
			</Point>
		</Placemark>
		<Placemark>
			<styleUrl>#pointStyleMap2</styleUrl>
			<ExtendedData>
				<SchemaData schemaUrl="#S_Breckinridge_SISDDSDD">
					<SimpleData name="tag"></SimpleData>
					<SimpleData name="turbine_id">3052257</SimpleData>
					<SimpleData name="project">Breckinridge</SimpleData>
					<SimpleData name="hub_height__m_">80</SimpleData>
					<SimpleData name="rotor_diameter__m_">103</SimpleData>
					<SimpleData name="turbine_model">GE1.7-103</SimpleData>
					<SimpleData name="xlong">-97.6328</SimpleData>
					<SimpleData name="ylat">36.4507</SimpleData>
				</SchemaData>
			</ExtendedData>
			<Point>
				<coordinates>-97.632835,36.45069500000001,0</coordinates>
			</Point>
		</Placemark>
		<Placemark>
			<styleUrl>#pointStyleMap2</styleUrl>
			<ExtendedData>
				<SchemaData schemaUrl="#S_Breckinridge_SISDDSDD">
					<SimpleData name="tag"></SimpleData>
					<SimpleData name="turbine_id">3052233</SimpleData>
					<SimpleData name="project">Breckinridge</SimpleData>
					<SimpleData name="hub_height__m_">80</SimpleData>
					<SimpleData name="rotor_diameter__m_">103</SimpleData>
					<SimpleData name="turbine_model">GE1.7-103</SimpleData>
					<SimpleData name="xlong">-97.7181</SimpleData>
					<SimpleData name="ylat">36.4539</SimpleData>
				</SchemaData>
			</ExtendedData>
			<Point>
				<coordinates>-97.71807100000001,36.45393400000003,0</coordinates>
			</Point>
		</Placemark>
		<Placemark>
			<styleUrl>#pointStyleMap2</styleUrl>
			<ExtendedData>
				<SchemaData schemaUrl="#S_Breckinridge_SISDDSDD">
					<SimpleData name="tag"></SimpleData>
					<SimpleData name="turbine_id">3054432</SimpleData>
					<SimpleData name="project">Breckinridge</SimpleData>
					<SimpleData name="hub_height__m_">80</SimpleData>
					<SimpleData name="rotor_diameter__m_">103</SimpleData>
					<SimpleData name="turbine_model">GE1.7-103</SimpleData>
					<SimpleData name="xlong">-97.6826</SimpleData>
					<SimpleData name="ylat">36.4522</SimpleData>
				</SchemaData>
			</ExtendedData>
			<Point>
				<coordinates>-97.68261,36.452202,0</coordinates>
			</Point>
		</Placemark>
		<Placemark>
			<styleUrl>#pointStyleMap2</styleUrl>
			<ExtendedData>
				<SchemaData schemaUrl="#S_Breckinridge_SISDDSDD">
					<SimpleData name="tag"></SimpleData>
					<SimpleData name="turbine_id">3054431</SimpleData>
					<SimpleData name="project">Breckinridge</SimpleData>
					<SimpleData name="hub_height__m_">80</SimpleData>
					<SimpleData name="rotor_diameter__m_">103</SimpleData>
					<SimpleData name="turbine_model">GE1.7-103</SimpleData>
					<SimpleData name="xlong">-97.7093</SimpleData>
					<SimpleData name="ylat">36.4515</SimpleData>
				</SchemaData>
			</ExtendedData>
			<Point>
				<coordinates>-97.70932000000001,36.45152300000002,0</coordinates>
			</Point>
		</Placemark>
		<Placemark>
			<styleUrl>#pointStyleMap2</styleUrl>
			<ExtendedData>
				<SchemaData schemaUrl="#S_Breckinridge_SISDDSDD">
					<SimpleData name="tag"></SimpleData>
					<SimpleData name="turbine_id">3054440</SimpleData>
					<SimpleData name="project">Breckinridge</SimpleData>
					<SimpleData name="hub_height__m_">80</SimpleData>
					<SimpleData name="rotor_diameter__m_">103</SimpleData>
					<SimpleData name="turbine_model">GE1.7-103</SimpleData>
					<SimpleData name="xlong">-97.637</SimpleData>
					<SimpleData name="ylat">36.4443</SimpleData>
				</SchemaData>
			</ExtendedData>
			<Point>
				<coordinates>-97.63704700000001,36.44425999999999,0</coordinates>
			</Point>
		</Placemark>
		<Placemark>
			<styleUrl>#pointStyleMap2</styleUrl>
			<ExtendedData>
				<SchemaData schemaUrl="#S_Breckinridge_SISDDSDD">
					<SimpleData name="tag"></SimpleData>
					<SimpleData name="turbine_id">3054437</SimpleData>
					<SimpleData name="project">Breckinridge</SimpleData>
					<SimpleData name="hub_height__m_">80</SimpleData>
					<SimpleData name="rotor_diameter__m_">103</SimpleData>
					<SimpleData name="turbine_model">GE1.7-103</SimpleData>
					<SimpleData name="xlong">-97.7065</SimpleData>
					<SimpleData name="ylat">36.4446</SimpleData>
				</SchemaData>
			</ExtendedData>
			<Point>
				<coordinates>-97.706535,36.44459499999997,0</coordinates>
			</Point>
		</Placemark>
		<Placemark>
			<styleUrl>#pointStyleMap2</styleUrl>
			<ExtendedData>
				<SchemaData schemaUrl="#S_Breckinridge_SISDDSDD">
					<SimpleData name="tag"></SimpleData>
					<SimpleData name="turbine_id">3052242</SimpleData>
					<SimpleData name="project">Breckinridge</SimpleData>
					<SimpleData name="hub_height__m_">80</SimpleData>
					<SimpleData name="rotor_diameter__m_">103</SimpleData>
					<SimpleData name="turbine_model">GE1.7-103</SimpleData>
					<SimpleData name="xlong">-97.7438</SimpleData>
					<SimpleData name="ylat">36.4394</SimpleData>
				</SchemaData>
			</ExtendedData>
			<Point>
				<coordinates>-97.74380499999998,36.439404,0</coordinates>
			</Point>
		</Placemark>
		<Placemark>
			<styleUrl>#pointStyleMap2</styleUrl>
			<ExtendedData>
				<SchemaData schemaUrl="#S_Breckinridge_SISDDSDD">
					<SimpleData name="tag"></SimpleData>
					<SimpleData name="turbine_id">3052258</SimpleData>
					<SimpleData name="project">Breckinridge</SimpleData>
					<SimpleData name="hub_height__m_">80</SimpleData>
					<SimpleData name="rotor_diameter__m_">103</SimpleData>
					<SimpleData name="turbine_model">GE1.7-103</SimpleData>
					<SimpleData name="xlong">-97.6202</SimpleData>
					<SimpleData name="ylat">36.4461</SimpleData>
				</SchemaData>
			</ExtendedData>
			<Point>
				<coordinates>-97.62022399999999,36.44613300000001,0</coordinates>
			</Point>
		</Placemark>
		<Placemark>
			<styleUrl>#pointStyleMap2</styleUrl>
			<ExtendedData>
				<SchemaData schemaUrl="#S_Breckinridge_SISDDSDD">
					<SimpleData name="tag"></SimpleData>
					<SimpleData name="turbine_id">3052266</SimpleData>
					<SimpleData name="project">Breckinridge</SimpleData>
					<SimpleData name="hub_height__m_">80</SimpleData>
					<SimpleData name="rotor_diameter__m_">103</SimpleData>
					<SimpleData name="turbine_model">GE1.7-103</SimpleData>
					<SimpleData name="xlong">-97.6432</SimpleData>
					<SimpleData name="ylat">36.4576</SimpleData>
				</SchemaData>
			</ExtendedData>
			<Point>
				<coordinates>-97.64315000000001,36.45758399999999,0</coordinates>
			</Point>
		</Placemark>
		<Placemark>
			<styleUrl>#pointStyleMap2</styleUrl>
			<ExtendedData>
				<SchemaData schemaUrl="#S_Breckinridge_SISDDSDD">
					<SimpleData name="tag"></SimpleData>
					<SimpleData name="turbine_id">3052234</SimpleData>
					<SimpleData name="project">Breckinridge</SimpleData>
					<SimpleData name="hub_height__m_">80</SimpleData>
					<SimpleData name="rotor_diameter__m_">103</SimpleData>
					<SimpleData name="turbine_model">GE1.7-103</SimpleData>
					<SimpleData name="xlong">-97.7137</SimpleData>
					<SimpleData name="ylat">36.4528</SimpleData>
				</SchemaData>
			</ExtendedData>
			<Point>
				<coordinates>-97.71365400000001,36.45276300000002,0</coordinates>
			</Point>
		</Placemark>
		<Placemark>
			<styleUrl>#pointStyleMap2</styleUrl>
			<ExtendedData>
				<SchemaData schemaUrl="#S_Breckinridge_SISDDSDD">
					<SimpleData name="tag"></SimpleData>
					<SimpleData name="turbine_id">3052260</SimpleData>
					<SimpleData name="project">Breckinridge</SimpleData>
					<SimpleData name="hub_height__m_">80</SimpleData>
					<SimpleData name="rotor_diameter__m_">103</SimpleData>
					<SimpleData name="turbine_model">GE1.7-103</SimpleData>
					<SimpleData name="xlong">-97.6295</SimpleData>
					<SimpleData name="ylat">36.4374</SimpleData>
				</SchemaData>
			</ExtendedData>
			<Point>
				<coordinates>-97.62950900000001,36.43744300000002,0</coordinates>
			</Point>
		</Placemark>
		<Placemark>
			<styleUrl>#pointStyleMap2</styleUrl>
			<ExtendedData>
				<SchemaData schemaUrl="#S_Breckinridge_SISDDSDD">
					<SimpleData name="tag"></SimpleData>
					<SimpleData name="turbine_id">3052253</SimpleData>
					<SimpleData name="project">Breckinridge</SimpleData>
					<SimpleData name="hub_height__m_">80</SimpleData>
					<SimpleData name="rotor_diameter__m_">103</SimpleData>
					<SimpleData name="turbine_model">GE1.7-103</SimpleData>
					<SimpleData name="xlong">-97.6734</SimpleData>
					<SimpleData name="ylat">36.4402</SimpleData>
				</SchemaData>
			</ExtendedData>
			<Point>
				<coordinates>-97.67340900000002,36.440201,0</coordinates>
			</Point>
		</Placemark>
		<Placemark>
			<styleUrl>#pointStyleMap2</styleUrl>
			<ExtendedData>
				<SchemaData schemaUrl="#S_Breckinridge_SISDDSDD">
					<SimpleData name="tag"></SimpleData>
					<SimpleData name="turbine_id">3052256</SimpleData>
					<SimpleData name="project">Breckinridge</SimpleData>
					<SimpleData name="hub_height__m_">80</SimpleData>
					<SimpleData name="rotor_diameter__m_">103</SimpleData>
					<SimpleData name="turbine_model">GE1.7-103</SimpleData>
					<SimpleData name="xlong">-97.6503</SimpleData>
					<SimpleData name="ylat">36.4424</SimpleData>
				</SchemaData>
			</ExtendedData>
			<Point>
				<coordinates>-97.65033,36.44240200000002,0</coordinates>
			</Point>
		</Placemark>
		<Placemark>
			<styleUrl>#pointStyleMap2</styleUrl>
			<ExtendedData>
				<SchemaData schemaUrl="#S_Breckinridge_SISDDSDD">
					<SimpleData name="tag"></SimpleData>
					<SimpleData name="turbine_id">3052263</SimpleData>
					<SimpleData name="project">Breckinridge</SimpleData>
					<SimpleData name="hub_height__m_">80</SimpleData>
					<SimpleData name="rotor_diameter__m_">103</SimpleData>
					<SimpleData name="turbine_model">GE1.7-103</SimpleData>
					<SimpleData name="xlong">-97.6158</SimpleData>
					<SimpleData name="ylat">36.4372</SimpleData>
				</SchemaData>
			</ExtendedData>
			<Point>
				<coordinates>-97.61576100000001,36.43718300000001,0</coordinates>
			</Point>
		</Placemark>
		<Placemark>
			<styleUrl>#pointStyleMap2</styleUrl>
			<ExtendedData>
				<SchemaData schemaUrl="#S_Breckinridge_SISDDSDD">
					<SimpleData name="tag"></SimpleData>
					<SimpleData name="turbine_id">3052236</SimpleData>
					<SimpleData name="project">Breckinridge</SimpleData>
					<SimpleData name="hub_height__m_">80</SimpleData>
					<SimpleData name="rotor_diameter__m_">103</SimpleData>
					<SimpleData name="turbine_model">GE1.7-103</SimpleData>
					<SimpleData name="xlong">-97.6996</SimpleData>
					<SimpleData name="ylat">36.4581</SimpleData>
				</SchemaData>
			</ExtendedData>
			<Point>
				<coordinates>-97.6996,36.45812200000002,0</coordinates>
			</Point>
		</Placemark>
	</Folder>
</Document>
</kml>
